{
  "links" : {
    "next" : "https://api.nasa.gov/neo/rest/v1/feed?start_date=1999-08-16&end_date=1999-08-16&detailed=true&api_key=t0TVs3DtDT2H8Oy2Zy8m2eVrNsAVKAexjcZXUckd",
    "prev" : "https://api.nasa.gov/neo/rest/v1/feed?start_date=1999-08-14&end_date=1999-08-14&detailed=true&api_key=t0TVs3DtDT2H8Oy2Zy8m2eVrNsAVKAexjcZXUckd",
    "self" : "https://api.nasa.gov/neo/rest/v1/feed?start_date=1999-08-15&end_date=1999-08-15&detailed=true&api_key=t0TVs3DtDT2H8Oy2Zy8m2eVrNsAVKAexjcZXUckd"
  },
  "element_count" : 5,
  "near_earth_objects" : {
    "1999-08-15" : [ {
      "links" : {
        "self" : "https://api.nasa.gov/neo/rest/v1/neo/3713009?api_key=t0TVs3DtDT2H8Oy2Zy8m2eVrNsAVKAexjcZXUckd"
      },
      "neo_reference_id" : "3713009",
      "name" : "(2015 EZ)",
      "nasa_jpl_url" : "http://ssd.jpl.nasa.gov/sbdb.cgi?sstr=3713009",
      "absolute_magnitude_h" : 20.3,
      "estimated_diameter" : {
        "kilometers" : {
          "estimated_diameter_min" : 0.2315021222,
          "estimated_diameter_max" : 0.5176544822
        },
        "meters" : {
          "estimated_diameter_min" : 231.5021222103,
          "estimated_diameter_max" : 517.6544821978
        },
        "miles" : {
          "estimated_diameter_min" : 0.1438487052,
          "estimated_diameter_max" : 0.3216554833
        },
        "feet" : {
          "estimated_diameter_min" : 759.5214226325,
          "estimated_diameter_max" : 1698.3415313737
        }
      },
      "is_potentially_hazardous_asteroid" : false,
      "close_approach_data" : [ {
        "close_approach_date" : "1999-08-15",
        "epoch_date_close_approach" : 934700400000,
        "relative_velocity" : {
          "kilometers_per_second" : "16.2988803593",
          "kilometers_per_hour" : "58675.9692935243",
          "miles_per_hour" : "36458.9654757457"
        },
        "miss_distance" : {
          "astronomical" : "0.3858981675",
          "lunar" : "150.1143951416",
          "kilometers" : "57729544",
          "miles" : "35871476"
        },
        "orbiting_body" : "Earth"
      } ],
      "orbital_data" : {
        "orbit_id" : "69",
        "orbit_determination_date" : "2017-04-06 08:35:11",
        "orbit_uncertainty" : "3",
        "minimum_orbit_intersection" : ".0862781",
        "jupiter_tisserand_invariant" : "4.769",
        "epoch_osculation" : "2458000.5",
        "eccentricity" : ".2837354998124443",
        "semi_major_axis" : "1.364669646214443",
        "inclination" : "13.21894033108866",
        "ascending_node_longitude" : "185.4569705808732",
        "orbital_period" : "582.2905266840985",
        "perihelion_distance" : ".9774644220669161",
        "perihelion_argument" : "65.08392814826978",
        "aphelion_distance" : "1.751874870361969",
        "perihelion_time" : "2457759.477171798107",
        "mean_anomaly" : "149.0119007204023",
        "mean_motion" : ".6182480797859613",
        "equinox" : "J2000"
      }
    }, {
      "links" : {
        "self" : "https://api.nasa.gov/neo/rest/v1/neo/3748472?api_key=t0TVs3DtDT2H8Oy2Zy8m2eVrNsAVKAexjcZXUckd"
      },
      "neo_reference_id" : "3748472",
      "name" : "(2016 FU12)",
      "nasa_jpl_url" : "http://ssd.jpl.nasa.gov/sbdb.cgi?sstr=3748472",
      "absolute_magnitude_h" : 26.9,
      "estimated_diameter" : {
        "kilometers" : {
          "estimated_diameter_min" : 0.0110803882,
          "estimated_diameter_max" : 0.0247765013
        },
        "meters" : {
          "estimated_diameter_min" : 11.0803882126,
          "estimated_diameter_max" : 24.7765012606
        },
        "miles" : {
          "estimated_diameter_min" : 0.0068850319,
          "estimated_diameter_max" : 0.0153953994
        },
        "feet" : {
          "estimated_diameter_min" : 36.3529808636,
          "estimated_diameter_max" : 81.2877363957
        }
      },
      "is_potentially_hazardous_asteroid" : false,
      "close_approach_data" : [ {
        "close_approach_date" : "1999-08-15",
        "epoch_date_close_approach" : 934700400000,
        "relative_velocity" : {
          "kilometers_per_second" : "5.6695028782",
          "kilometers_per_hour" : "20410.2103615548",
          "miles_per_hour" : "12682.1109882672"
        },
        "miss_distance" : {
          "astronomical" : "0.0511936365",
          "lunar" : "19.9143238068",
          "kilometers" : "7658459",
          "miles" : "4758746"
        },
        "orbiting_body" : "Earth"
      } ],
      "orbital_data" : {
        "orbit_id" : "4",
        "orbit_determination_date" : "2017-04-06 08:27:11",
        "orbit_uncertainty" : "7",
        "minimum_orbit_intersection" : ".0336951",
        "jupiter_tisserand_invariant" : "6.057",
        "epoch_osculation" : "2458000.5",
        "eccentricity" : ".1659032170444373",
        "semi_major_axis" : "1.002189261805455",
        "inclination" : "2.07974763007612",
        "ascending_node_longitude" : "227.003991790028",
        "orbital_period" : "366.4570190374504",
        "perihelion_distance" : ".8359228391845402",
        "perihelion_argument" : "194.9107288518438",
        "aphelion_distance" : "1.16845568442637",
        "perihelion_time" : "2458097.775755561877",
        "mean_anomaly" : "264.4382555578862",
        "mean_motion" : ".9823798734858167",
        "equinox" : "J2000"
      }
    } ]
  }
}